*******************************************************************************
Ephemeris / WWW_USER Mon Mar 10 07:22:36 2025 Pasadena, USA      / Horizons    
*******************************************************************************
Target body name: (2018 PC20)                     {source: JPL#4}
Center body name: Earth (399)                     {source: DE441}
Center-site name: Mauna Kea
*******************************************************************************
Start time      : A.D. 2018-Sep-26 04:24:00.0000 UT      
Stop  time      : A.D. 2018-Sep-26 16:02:00.0000 UT      
Step-size       : 1 minutes
*******************************************************************************
Target pole/equ : undefined
Target radii    : undefined                                                    
Center geodetic : 204.5278, 19.8260847, 4.21024   {E-lon(deg),Lat(deg),Alt(km)}
Center cylindric: 204.5278, 6006.35451, 2151.0229 {E-lon(deg),Dxy(km),Dz(km)}
Center pole/equ : ITRF93                          {East-longitude positive}
Center radii    : 6378.137, 6378.137, 6356.752 km {Equator_a, b, pole_c}       
Target primary  : Sun
Vis. interferer : MOON (R_eq= 1737.400) km        {source: DE441}
Rel. light bend : Sun                             {source: DE441}
Rel. lght bnd GM: 1.3271E+11 km^3/s^2                                          
Small-body perts: Yes                             {source: SB441-N16}
Atmos refraction: NO (AIRLESS)
RA format       : HMS
Time format     : CAL 
Calendar mode   : Mixed Julian/Gregorian
RTS-only print  : NO       
EOP file        : eop.250307.p250603                                           
EOP coverage    : DATA-BASED 1962-JAN-20 TO 2025-MAR-07. PREDICTS-> 2025-JUN-02
Units conversion: 1 au= 149597870.700 km, c= 299792.458 km/s, 1 day= 86400.0 s 
Table cut-offs 1: Elevation (-90.0deg=NO ),Airmass (>38.000=NO), Daylight (YES)
Table cut-offs 2: Solar elongation (  0.0,180.0=NO ),Local Hour Angle( 0.0=NO )
Table cut-offs 3: RA/DEC angular rate (     0.0=NO )                           
*******************************************************************************
Initial IAU76/J2000 heliocentric ecliptic osculating elements (au, days, deg.):
  EPOCH=  2458343.5 ! 2018-Aug-13.00 (TDB)         Residual RMS= .24519        
   EC= .404352607301711    QR= 1.018354806317198   TP= 2458318.6524357731      
   OM= 139.299704166656    W=  153.5303944744985   IN= 8.986086735514593       
  Equivalent ICRF heliocentric cartesian coordinates (au, au/d):
   X= 8.116079301925467E-01  Y=-6.140581064636024E-01  Z=-2.698058679324596E-01
  VX= 1.436448164656351E-02 VY= 1.329561442287599E-02 VZ= 2.429594529488231E-03
Asteroid physical parameters (km, seconds, rotational period in hours):        
   GM= n.a.                RAD= n.a.               ROTPER= n.a.                
   H= 25.2                 G= .150                 B-V= n.a.                   
                           ALBEDO= n.a.            STYP= n.a.                  
*******************************************************************************
 Date__(UT)__HR:MN     R.A._________(ICRF)_________DEC
******************************************************
$$SOE
 2018-Sep-26 10:33  m  00 17 55.891521 -29 22 40.59217
 2018-Sep-26 10:34  m  00 17 55.878949 -29 22 40.15921
 2018-Sep-26 10:35  m  00 17 55.866379 -29 22 39.72595
 2018-Sep-26 10:36  m  00 17 55.853813 -29 22 39.29240
 2018-Sep-26 10:37  m  00 17 55.841250 -29 22 38.85856
 2018-Sep-26 10:38  m  00 17 55.828691 -29 22 38.42442
 2018-Sep-26 10:39  m  00 17 55.816135 -29 22 37.98998
 2018-Sep-26 10:40  m  00 17 55.803584 -29 22 37.55525
 2018-Sep-26 10:41  m  00 17 55.791037 -29 22 37.12022
 2018-Sep-26 10:42  m  00 17 55.778494 -29 22 36.68489
 2018-Sep-26 10:43  m  00 17 55.765956 -29 22 36.24928
 2018-Sep-26 10:44  m  00 17 55.753423 -29 22 35.81336
 2018-Sep-26 10:45  m  00 17 55.740894 -29 22 35.37715
 2018-Sep-26 10:46  m  00 17 55.728371 -29 22 34.94065
 2018-Sep-26 10:47  m  00 17 55.715853 -29 22 34.50385
 2018-Sep-26 10:48  m  00 17 55.703341 -29 22 34.06676
 2018-Sep-26 10:49  m  00 17 55.690835 -29 22 33.62937
 2018-Sep-26 10:50  m  00 17 55.678334 -29 22 33.19169
 2018-Sep-26 10:51  m  00 17 55.665840 -29 22 32.75371
 2018-Sep-26 10:52  m  00 17 55.653352 -29 22 32.31544
 2018-Sep-26 10:53  m  00 17 55.640870 -29 22 31.87688
 2018-Sep-26 10:54  m  00 17 55.628395 -29 22 31.43803
 2018-Sep-26 10:55  m  00 17 55.615928 -29 22 30.99888
 2018-Sep-26 10:56  m  00 17 55.603467 -29 22 30.55943
 2018-Sep-26 10:57  m  00 17 55.591013 -29 22 30.11970
 2018-Sep-26 10:58  m  00 17 55.578568 -29 22 29.67967
 2018-Sep-26 10:59  m  00 17 55.566129 -29 22 29.23935
 2018-Sep-26 11:00  m  00 17 55.553699 -29 22 28.79874
 2018-Sep-26 11:01  m  00 17 55.541277 -29 22 28.35783
 2018-Sep-26 11:02  m  00 17 55.528863 -29 22 27.91664
 2018-Sep-26 11:03  m  00 17 55.516457 -29 22 27.47515
 2018-Sep-26 11:04  m  00 17 55.504061 -29 22 27.03337
 2018-Sep-26 11:05  m  00 17 55.491673 -29 22 26.59130
 2018-Sep-26 11:06  m  00 17 55.479294 -29 22 26.14895
 2018-Sep-26 11:07  m  00 17 55.466924 -29 22 25.70630
 2018-Sep-26 11:08  m  00 17 55.454564 -29 22 25.26335
 2018-Sep-26 11:09  m  00 17 55.442213 -29 22 24.82012
 2018-Sep-26 11:10  m  00 17 55.429872 -29 22 24.37661
 2018-Sep-26 11:11  m  00 17 55.417541 -29 22 23.93280
 2018-Sep-26 11:12  m  00 17 55.405220 -29 22 23.48870
 2018-Sep-26 11:13  m  00 17 55.392910 -29 22 23.04431
 2018-Sep-26 11:14  m  00 17 55.380610 -29 22 22.59964
 2018-Sep-26 11:15  m  00 17 55.368321 -29 22 22.15467
 2018-Sep-26 11:16  m  00 17 55.356043 -29 22 21.70942
 2018-Sep-26 11:17  m  00 17 55.343776 -29 22 21.26388
 2018-Sep-26 11:18  m  00 17 55.331521 -29 22 20.81806
 2018-Sep-26 11:19  m  00 17 55.319276 -29 22 20.37195
 2018-Sep-26 11:20  m  00 17 55.307044 -29 22 19.92555
 2018-Sep-26 11:21  m  00 17 55.294823 -29 22 19.47886
 2018-Sep-26 11:22  m  00 17 55.282615 -29 22 19.03189
 2018-Sep-26 11:23  m  00 17 55.270419 -29 22 18.58464
 2018-Sep-26 11:24  m  00 17 55.258235 -29 22 18.13710
 2018-Sep-26 11:25  m  00 17 55.246064 -29 22 17.68927
 2018-Sep-26 11:26  m  00 17 55.233905 -29 22 17.24116
 2018-Sep-26 11:27  m  00 17 55.221760 -29 22 16.79277
 2018-Sep-26 11:28  m  00 17 55.209628 -29 22 16.34409
 2018-Sep-26 11:29  m  00 17 55.197509 -29 22 15.89513
 2018-Sep-26 11:30  m  00 17 55.185404 -29 22 15.44588
 2018-Sep-26 11:31  m  00 17 55.173313 -29 22 14.99636
 2018-Sep-26 11:32  m  00 17 55.161235 -29 22 14.54655
 2018-Sep-26 11:33  m  00 17 55.149172 -29 22 14.09646
 2018-Sep-26 11:34  m  00 17 55.137123 -29 22 13.64609
 2018-Sep-26 11:35  m  00 17 55.125088 -29 22 13.19544
 2018-Sep-26 11:36  m  00 17 55.113068 -29 22 12.74450
 2018-Sep-26 11:37  m  00 17 55.101063 -29 22 12.29329
 2018-Sep-26 11:38  m  00 17 55.089073 -29 22 11.84180
 2018-Sep-26 11:39  m  00 17 55.077099 -29 22 11.39003
 2018-Sep-26 11:40  m  00 17 55.065139 -29 22 10.93798
 2018-Sep-26 11:41  m  00 17 55.053195 -29 22 10.48565
 2018-Sep-26 11:42  m  00 17 55.041267 -29 22 10.03304
 2018-Sep-26 11:43  m  00 17 55.029355 -29 22 09.58016
 2018-Sep-26 11:44  m  00 17 55.017460 -29 22 09.12700
 2018-Sep-26 11:45  m  00 17 55.005580 -29 22 08.67356
 2018-Sep-26 11:46  m  00 17 54.993717 -29 22 08.21985
 2018-Sep-26 11:47  m  00 17 54.981870 -29 22 07.76586
 2018-Sep-26 11:48  m  00 17 54.970041 -29 22 07.31160
 2018-Sep-26 11:49  m  00 17 54.958228 -29 22 06.85706
 2018-Sep-26 11:50  m  00 17 54.946433 -29 22 06.40225
 2018-Sep-26 11:51  m  00 17 54.934655 -29 22 05.94716
 2018-Sep-26 11:52  m  00 17 54.922895 -29 22 05.49180
 2018-Sep-26 11:53  m  00 17 54.911153 -29 22 05.03617
 2018-Sep-26 11:54  m  00 17 54.899428 -29 22 04.58027
 2018-Sep-26 11:55  m  00 17 54.887722 -29 22 04.12410
 2018-Sep-26 11:56  m  00 17 54.876033 -29 22 03.66765
 2018-Sep-26 11:57  m  00 17 54.864364 -29 22 03.21093
 2018-Sep-26 11:58  m  00 17 54.852713 -29 22 02.75395
 2018-Sep-26 11:59  m  00 17 54.841081 -29 22 02.29669
 2018-Sep-26 12:00  m  00 17 54.829467 -29 22 01.83917
 2018-Sep-26 12:01  m  00 17 54.817873 -29 22 01.38137
 2018-Sep-26 12:02  m  00 17 54.806299 -29 22 00.92331
 2018-Sep-26 12:03  m  00 17 54.794744 -29 22 00.46498
 2018-Sep-26 12:04  m  00 17 54.783208 -29 22 00.00639
 2018-Sep-26 12:05  m  00 17 54.771693 -29 21 59.54753
 2018-Sep-26 12:06  m  00 17 54.760197 -29 21 59.08840
 2018-Sep-26 12:07  m  00 17 54.748722 -29 21 58.62901
 2018-Sep-26 12:08  m  00 17 54.737267 -29 21 58.16935
 2018-Sep-26 12:09  m  00 17 54.725833 -29 21 57.70943
 2018-Sep-26 12:10  m  00 17 54.714419 -29 21 57.24925
 2018-Sep-26 12:11  m  00 17 54.703026 -29 21 56.78880
 2018-Sep-26 12:12  m  00 17 54.691655 -29 21 56.32810
 2018-Sep-26 12:13  m  00 17 54.680305 -29 21 55.86713
 2018-Sep-26 12:14  m  00 17 54.668976 -29 21 55.40590
 2018-Sep-26 12:15  m  00 17 54.657669 -29 21 54.94441
 2018-Sep-26 12:16  m  00 17 54.646383 -29 21 54.48266
 2018-Sep-26 12:17  m  00 17 54.635120 -29 21 54.02065
 2018-Sep-26 12:18  m  00 17 54.623878 -29 21 53.55838
 2018-Sep-26 12:19  m  00 17 54.612659 -29 21 53.09585
 2018-Sep-26 12:20  m  00 17 54.601462 -29 21 52.63307
 2018-Sep-26 12:21  m  00 17 54.590288 -29 21 52.17003
 2018-Sep-26 12:22  m  00 17 54.579137 -29 21 51.70674
 2018-Sep-26 12:23  m  00 17 54.568009 -29 21 51.24318
 2018-Sep-26 12:24  m  00 17 54.556903 -29 21 50.77938
 2018-Sep-26 12:25  m  00 17 54.545821 -29 21 50.31532
 2018-Sep-26 12:26  m  00 17 54.534763 -29 21 49.85101
 2018-Sep-26 12:27  m  00 17 54.523728 -29 21 49.38644
 2018-Sep-26 12:28  m  00 17 54.512717 -29 21 48.92163
 2018-Sep-26 12:29  m  00 17 54.501730 -29 21 48.45656
 2018-Sep-26 12:30  m  00 17 54.490767 -29 21 47.99124
 2018-Sep-26 12:31  m  00 17 54.479828 -29 21 47.52567
 2018-Sep-26 12:32  m  00 17 54.468914 -29 21 47.05985
 2018-Sep-26 12:33  m  00 17 54.458024 -29 21 46.59379
 2018-Sep-26 12:34  m  00 17 54.447159 -29 21 46.12747
 2018-Sep-26 12:35  m  00 17 54.436319 -29 21 45.66091
